{
    "links": {
        "self": "http://www.neowsapp.com/rest/v1/neo/3767040?api_key=iIulBulltgU6a56xZRHN4H3l9WmuAYTsLGpBGhQ2"
    },
    "id": "3767040",
    "neo_reference_id": "3767040",
    "name": "(2017 BH29)",
    "designation": "2017 BH29",
    "nasa_jpl_url": "http://ssd.jpl.nasa.gov/sbdb.cgi?sstr=3767040",
    "absolute_magnitude_h": 25.6,
    "estimated_diameter": {
        "kilometers": {
            "estimated_diameter_min": 0.0201629919,
            "estimated_diameter_max": 0.0450858206
        },
        "meters": {
            "estimated_diameter_min": 20.1629919443,
            "estimated_diameter_max": 45.0858206172
        },
        "miles": {
            "estimated_diameter_min": 0.0125286985,
            "estimated_diameter_max": 0.0280150214
        },
        "feet": {
            "estimated_diameter_min": 66.1515504905,
            "estimated_diameter_max": 147.9193637137
        }
    },
    "is_potentially_hazardous_asteroid": false,
    "close_approach_data": [
        {
            "close_approach_date": "2017-01-29",
            "close_approach_date_full": "2017-Jan-29 22:19",
            "epoch_date_close_approach": 1485728340000,
            "relative_velocity": {
                "kilometers_per_second": "6.1779237655",
                "kilometers_per_hour": "22240.5255558621",
                "miles_per_hour": "13819.3976710856"
            },
            "miss_distance": {
                "astronomical": "0.0834928962",
                "lunar": "32.4787366218",
                "kilometers": "12490359.431651094",
                "miles": "7761149.4615453372"
            },
            "orbiting_body": "Earth"
        },
        {
            "close_approach_date": "2166-12-28",
            "close_approach_date_full": "2166-Dec-28 08:08",
            "epoch_date_close_approach": 6216422880000,
            "relative_velocity": {
                "kilometers_per_second": "16.630388247",
                "kilometers_per_hour": "59869.3976891212",
                "miles_per_hour": "37200.5154696653"
            },
            "miss_distance": {
                "astronomical": "0.3991209617",
                "lunar": "155.2580541013",
                "kilometers": "59707645.742671579",
                "miles": "37100610.6863186302"
            },
            "orbiting_body": "Earth"
        }
    ],
    "orbital_data": {
        "orbit_id": "7",
        "orbit_determination_date": "2017-04-06 08:20:46",
        "first_observation_date": "2017-01-27",
        "last_observation_date": "2017-02-16",
        "data_arc_in_days": 20,
        "observations_used": 60,
        "orbit_uncertainty": "7",
        "minimum_orbit_intersection": ".0810167",
        "jupiter_tisserand_invariant": "3.145",
        "epoch_osculation": "2459000.5",
        "eccentricity": ".5894617672493121",
        "semi_major_axis": "2.595811891451036",
        "inclination": "1.902473946062563",
        "ascending_node_longitude": "116.2107802394278",
        "orbital_period": "1527.595088214077",
        "perihelion_distance": "1.065680026469529",
        "perihelion_argument": "13.37146925144245",
        "aphelion_distance": "4.125943756432544",
        "perihelion_time": "2459310.498815494048",
        "mean_anomaly": "286.9442704818271",
        "mean_motion": ".2356645440781553",
        "equinox": "J2000",
        "orbit_class": {
            "orbit_class_type": "AMO",
            "orbit_class_description": "Near-Earth asteroid orbits similar to that of 1221 Amor",
            "orbit_class_range": "1.017 AU < q (perihelion) < 1.3 AU"
        }
    },
    "is_sentry_object": false
}